Orbital Elements at Epoch 2458735.5 (2019-Sep-09.0) TDB
Reference: JPL 4 (heliocentric ecliptic J2000)
 Element   Value Uncertainty (1-sigma) 	 Units
 e	   3.635363102615178 0.14593
 a	   -.7856957098425218	0.031443	au
 q	   2.070593483602023	0.031806	au
 i	   43.48353042247117	0.27923		deg
 node	   308.7089145318114	0.27828		deg
 peri	   207.7029108993279	0.67462		deg
 M	   -125.9859161053173	6.5044		deg
 tp	   2458824.522440703019
 (2019-Dec-07.02244070)	0.74811	TDB
 period			n/a
 n/a			n/a
 n/a			d
 yr
 n	1.41521525483231	0.084953	deg/d
 Q	n/a			n/a		au
 	Orbit Determination Parameters
	# obs. used (total)		  116
	data-arc span   		    13 days
	first obs. used   	      2019-08-30
	last obs. used   	        2019-09-12
	planetary ephem.   	  DE431
	SB-pert. ephem.   	    SB431-N16
	norm. resid. RMS         .55359
	source      ORB
	producer	  Davide Farnocchia
	solution date   	   2019-Sep-12 09:40:31

Additional Information
 Earth MOID = 1.14984 au
  Jupiter MOID = 2.35077 au
  [ hide covariance matrix ]
  Orbit Covariance (6×6)
   	e	   q	tp	node	peri	i
	e	   .02129471564940271	.004639835869552257	-.1091563467586793	.04060670554616048	-.09837499565651044	-.04074208069812483
	q	   .004639835869552257	.001011644409192504	-.02379334357226357	.008850173769771088	-.02145565860273535	-.008880561093235923
	tp	   -.1091563467586793	-.02379334357226357	.5596703181525133	-.208184294363167	.5045645695900899	.2088907388756436
	node	   .04060670554616048	.008850173769771088	-.208184294363167	.07744205192576377	-.1876676256289869	-.07770362726790085
	peri	   -.09837499565651044	-.02145565860273535	.5045645695900899	-.1876676256289869	.4551086736500189	.1883204922841681
	i	   -.04074208069812483	-.008880561093235923	.2088907388756436	-.07770362726790085	.1883204922841681	.07796733382594068
